$$SOE
2460728.500000000, A.D. 2025-Feb-22 00:00:00.0000, -3.403289042128794E+08, 2.833044049097519E+08, -2.997596864242196E+07,
2460735.500000000, A.D. 2025-Mar-01 00:00:00.0000, -3.467094610624102E+08, 2.754989359590329E+08, -2.882415816528280E+07,
2460742.500000000, A.D. 2025-Mar-08 00:00:00.0000, -3.528973706080949E+08, 2.675404371394291E+08, -2.765633372561084E+07,
2460749.500000000, A.D. 2025-Mar-15 00:00:00.0000, -3.588891061683077E+08, 2.594332639742386E+08, -2.647313771331041E+07,
2460756.500000000, A.D. 2025-Mar-22 00:00:00.0000, -3.646812285983385E+08, 2.511818466044232E+08, -2.527521994510578E+07,
2460763.500000000, A.D. 2025-Mar-29 00:00:00.0000, -3.702703882589352E+08, 2.427906869542236E+08, -2.406323757439581E+07,
2460770.500000000, A.D. 2025-Apr-05 00:00:00.0000, -3.756533253140922E+08, 2.342643567801030E+08, -2.283785508318619E+07,
2460777.500000000, A.D. 2025-Apr-12 00:00:00.0000, -3.808268702877311E+08, 2.256074967064751E+08, -2.159974417151871E+07,
2460784.500000000, A.D. 2025-Apr-19 00:00:00.0000, -3.857879450682257E+08, 2.168248153675743E+08, -2.034958359959235E+07,
2460791.500000000, A.D. 2025-Apr-26 00:00:00.0000, -3.905335640888326E+08, 2.079210884514685E+08, -1.908805902385475E+07,
2460798.500000000, A.D. 2025-May-03 00:00:00.0000, -3.950608355700032E+08, 1.989011576630712E+08, -1.781586283552772E+07,
2460805.500000000, A.D. 2025-May-10 00:00:00.0000, -3.993669627950818E+08, 1.897699296121003E+08, -1.653369400311723E+07,
2460812.500000000, A.D. 2025-May-17 00:00:00.0000, -4.034492453830170E+08, 1.805323745822163E+08, -1.524225792529605E+07,
2460819.500000000, A.D. 2025-May-24 00:00:00.0000, -4.073050803845468E+08, 1.711935251241741E+08, -1.394226631422160E+07,
2460826.500000000, A.D. 2025-May-31 00:00:00.0000, -4.109319627842706E+08, 1.617584747811750E+08, -1.263443712181782E+07,
2460833.500000000, A.D. 2025-Jun-07 00:00:00.0000, -4.143274858097824E+08, 1.522323781480540E+08, -1.131949437340984E+07,
2460840.500000000, A.D. 2025-Jun-14 00:00:00.0000, -4.174893434139456E+08, 1.426204515944281E+08, -9.998167746132754E+06,
2460847.500000000, A.D. 2025-Jun-21 00:00:00.0000, -4.204153337154490E+08, 1.329279713791043E+08, -8.671192270895593E+06,
2460854.500000000, A.D. 2025-Jun-28 00:00:00.0000, -4.231033602677427E+08, 1.231602709188490E+08, -7.339308299906708E+06,
2460861.500000000, A.D. 2025-Jul-05 00:00:00.0000, -4.255514326708522E+08, 1.133227393635458E+08, -6.003261423671149E+06,
2460868.500000000, A.D. 2025-Jul-12 00:00:00.0000, -4.277576677181756E+08, 1.034208206683417E+08, -4.663802293799967E+06,
2460875.500000000, A.D. 2025-Jul-19 00:00:00.0000, -4.297202908899192E+08, 9.346001258543813E+07, -3.321686415764701E+06,
2460882.500000000, A.D. 2025-Jul-26 00:00:00.0000, -4.314376379829466E+08, 8.344586551666756E+07, -1.977673934980404E+06,
2460889.500000000, A.D. 2025-Aug-02 00:00:00.0000, -4.329081568108025E+08, 7.338398124563807E+07, -6.325294198728502E+05,
2460896.500000000, A.D. 2025-Aug-09 00:00:00.0000, -4.341304089496225E+08, 6.328001153174718E+07, 7.129783553067483E+05,
2460903.500000000, A.D. 2025-Aug-16 00:00:00.0000, -4.351030714520943E+08, 5.313965649979792E+07, 2.058076616287950E+06,
2460910.500000000, A.D. 2025-Aug-23 00:00:00.0000, -4.358249382357264E+08, 4.296866283868105E+07, 3.401988758346630E+06,
2460917.500000000, A.D. 2025-Aug-30 00:00:00.0000, -4.362949208149197E+08, 3.277282251998318E+07, 4.743934508471483E+06,
2460924.500000000, A.D. 2025-Sep-06 00:00:00.0000, -4.365120497932861E+08, 2.255797303301945E+07, 6.083130292571100E+06,
2460931.500000000, A.D. 2025-Sep-13 00:00:00.0000, -4.364754787868158E+08, 1.232999664936511E+07, 7.418789758563313E+06,
2460938.500000000, A.D. 2025-Sep-20 00:00:00.0000, -4.361844875051174E+08, 2.094817069943707E+06, 8.750124021366443E+06,
2460945.500000000, A.D. 2025-Sep-27 00:00:00.0000, -4.356384829292037E+08, -8.141603435687419E+06, 1.007634178784994E+07,
2460952.500000000, A.D. 2025-Oct-04 00:00:00.0000, -4.348370005984383E+08, -1.837326586278411E+07, 1.139664959143488E+07,
2460959.500000000, A.D. 2025-Oct-11 00:00:00.0000, -4.337797063789980E+08, -2.859413622540522E+07, 1.271025209390560E+07,
2460966.500000000, A.D. 2025-Oct-18 00:00:00.0000, -4.324663984299384E+08, -3.879814750859407E+07, 1.401635240638199E+07,
2460973.500000000, A.D. 2025-Oct-25 00:00:00.0000, -4.308970092258695E+08, -4.897920180979041E+07, 1.531415241804206E+07,
2460980.500000000, A.D. 2025-Nov-01 00:00:00.0000, -4.290716075938253E+08, -5.913117265556487E+07, 1.660285313070473E+07,
2460987.500000000, A.D. 2025-Nov-08 00:00:00.0000, -4.269904007252412E+08, -6.924790752655424E+07, 1.788165499388559E+07,
2460994.500000000, A.D. 2025-Nov-15 00:00:00.0000, -4.246537360091754E+08, -7.932323065118413E+07, 1.914975822215591E+07,
2461001.500000000, A.D. 2025-Nov-22 00:00:00.0000, -4.220621022775012E+08, -8.935094585146262E+07, 2.040636307584716E+07,
2461008.500000000, A.D. 2025-Nov-29 00:00:00.0000, -4.192161306095118E+08, -9.932483831063570E+07, 2.165067021176791E+07,
2461015.500000000, A.D. 2025-Dec-06 00:00:00.0000, -4.161165969697126E+08, -1.092386754043139E+08, 2.288188130154702E+07,
2461022.500000000, A.D. 2025-Dec-13 00:00:00.0000, -4.127644262446660E+08, -1.190862099704369E+08, 2.409919960246950E+07,
2461029.500000000, A.D. 2025-Dec-20 00:00:00.0000, -4.091606941856685E+08, -1.288611849969789E+08, 2.530183024451816E+07,
2461036.500000000, A.D. 2025-Dec-27 00:00:00.0000, -4.053066283267705E+08, -1.385573371358156E+08, 2.648898054441982E+07,
2461043.500000000, A.D. 2026-Jan-03 00:00:00.0000, -4.012036093301187E+08, -1.481683996591319E+08, 2.765986043045363E+07,
2461050.500000000, A.D. 2026-Jan-10 00:00:00.0000, -3.968531726423369E+08, -1.576881055396467E+08, 2.881368291258239E+07,
2461057.500000000, A.D. 2026-Jan-17 00:00:00.0000, -3.922570102239531E+08, -1.671101907483469E+08, 2.994966456934037E+07,
2461064.500000000, A.D. 2026-Jan-24 00:00:00.0000, -3.874169722681837E+08, -1.764283977483179E+08, 3.106702604652052E+07,
2461071.500000000, A.D. 2026-Jan-31 00:00:00.0000, -3.823350688791020E+08, -1.856364791929389E+08, 3.216499256519216E+07,
2461078.500000000, A.D. 2026-Feb-07 00:00:00.0000, -3.770134716407244E+08, -1.947282018865826E+08, 3.324279442894060E+07,
2461085.500000000, A.D. 2026-Feb-14 00:00:00.0000, -3.714545148168285E+08, -2.036973510237700E+08, 3.429966750603189E+07,
2461092.500000000, A.D. 2026-Feb-21 00:00:00.0000, -3.656606957864994E+08, -2.125377341300646E+08, 3.533485369822385E+07,
2461099.500000000, A.D. 2026-Feb-28 00:00:00.0000, -3.596346757920225E+08, -2.212431835512730E+08, 3.634760158994967E+07,
2461106.500000000, A.D. 2026-Mar-07 00:00:00.0000, -3.533792830491187E+08, -2.298075594417052E+08, 3.733716730714483E+07,
2461113.500000000, A.D. 2026-Mar-14 00:00:00.0000, -3.468975154368986E+08, -2.382247555860119E+08, 3.830281514053939E+07,
2461120.500000000, A.D. 2026-Mar-21 00:00:00.0000, -3.401925409784159E+08, -2.464887051568777E+08, 3.924381800704123E+07,
2461127.500000000, A.D. 2026-Mar-28 00:00:00.0000, -3.332676981129646E+08, -2.545933853780494E+08, 4.015945801765678E+07,
2461134.500000000, A.D. 2026-Apr-04 00:00:00.0000, -3.261264963540048E+08, -2.625328220563934E+08, 4.104902712811416E+07,
2461141.500000000, A.D. 2026-Apr-11 00:00:00.0000, -3.187726170491974E+08, -2.703010943418371E+08, 4.191182781728052E+07,
2461148.500000000, A.D. 2026-Apr-18 00:00:00.0000, -3.112099140746177E+08, -2.778923397207243E+08, 4.274717377800188E+07,
2461155.500000000, A.D. 2026-Apr-25 00:00:00.0000, -3.034424144088612E+08, -2.853007592254307E+08, 4.355439061718121E+07,
2461162.500000000, A.D. 2026-May-02 00:00:00.0000, -2.954743185470746E+08, -2.925206228860276E+08, 4.433281655944137E+07,
2461169.500000000, A.D. 2026-May-09 00:00:00.0000, -2.873100006200438E+08, -2.995462754856043E+08, 4.508180313680086E+07,
2461176.500000000, A.D. 2026-May-16 00:00:00.0000, -2.789540078295033E+08, -3.063721424759923E+08, 4.580071584004198E+07,
2461183.500000000, A.D. 2026-May-23 00:00:00.0000, -2.704110591366654E+08, -3.129927350263284E+08, 4.648893480947024E+07,
2461190.500000000, A.D. 2026-May-30 00:00:00.0000, -2.616860452708902E+08, -3.194026538794532E+08, 4.714585578055312E+07,
2461197.500000000, A.D. 2026-Jun-06 00:00:00.0000, -2.527840303647243E+08, -3.255965952852489E+08, 4.777089104481193E+07,
2461204.500000000, A.D. 2026-Jun-13 00:00:00.0000, -2.437102515406438E+08, -3.315693588086067E+08, 4.836347010532241E+07,
2461211.500000000, A.D. 2026-Jun-20 00:00:00.0000, -2.344701169433746E+08, -3.373158540807061E+08, 4.892304031144288E+07,
2461218.500000000, A.D. 2026-Jun-27 00:00:00.0000, -2.250692039085810E+08, -3.428311068255930E+08, 4.944906759989811E+07,
2461225.500000000, A.D. 2026-Jul-04 00:00:00.0000, -2.155132572598902E+08, -3.481102649275153E+08, 4.994103727754486E+07,
2461232.500000000, A.D. 2026-Jul-11 00:00:00.0000, -2.058081874720599E+08, -3.531486046606984E+08, 5.039845481007852E+07,
2461239.500000000, A.D. 2026-Jul-18 00:00:00.0000, -1.959600685997073E+08, -3.579415370447114E+08, 5.082084660845636E+07,
2461246.500000000, A.D. 2026-Jul-25 00:00:00.0000, -1.859751359394968E+08, -3.624846143098879E+08, 5.120776080895753E+07,
2461253.500000000, A.D. 2026-Aug-01 00:00:00.0000, -1.758597833691529E+08, -3.667735365064402E+08, 5.155876803598548E+07,
2461260.500000000, A.D. 2026-Aug-08 00:00:00.0000, -1.656205601386990E+08, -3.708041582787811E+08, 5.187346212215383E+07,
2461267.500000000, A.D. 2026-Aug-15 00:00:00.0000, -1.552641666895371E+08, -3.745724953420620E+08, 5.215146078195007E+07,
2461274.500000000, A.D. 2026-Aug-22 00:00:00.0000, -1.447974502552719E+08, -3.780747294280224E+08, 5.239240640680058E+07,
2461281.500000000, A.D. 2026-Aug-29 00:00:00.0000, -1.342274025282856E+08, -3.813072130601967E+08, 5.259596707771972E+07,
2461288.500000000, A.D. 2026-Sep-05 00:00:00.0000, -1.235611572546316E+08, -3.842664770131865E+08, 5.276183736390717E+07,
$$EOE